{
  "type": "FeatureCollection",
  "features": [
    {
      "type": "Feature",
      "properties": {
        "norad_id": 37781,
        "name": "HAIYANG-2A",
        "group": "resource",
        "lat": -76.02011267253089,
        "lon": 125.89159477621783,
        "alt_km": 976.5200585202956,
        "timestamp": "2025-12-12T07:43:20.160406+00:00",
        "meta_object_name": "HAIYANG-2A",
        "meta_object_id": "2011-043A",
        "meta_epoch": "2025-12-11T23:30:04.745376",
        "meta_mean_motion": 13.78835407,
        "meta_eccentricity": 0.00016612,
        "meta_inclination": 99.3382,
        "meta_ra_of_asc_node": 346.9251,
        "meta_arg_of_pericenter": 84.0434,
        "meta_mean_anomaly": 276.0906,
        "meta_ephemeris_type": 0,
        "meta_classification_type": "U",
        "meta_norad_cat_id": 37781,
        "meta_element_set_no": 999,
        "meta_rev_at_epoch": 72088,
        "meta_bstar": 0.00012289787,
        "meta_mean_motion_dot": 8.1e-07,
        "meta_mean_motion_ddot": 0,
        "tle_line1": "1 37781U 11043A   25345.97922159  .00000081  00000+0  12290-3 0  9993",
        "tle_line2": "2 37781  99.3382 346.9251 0001661  84.0434 276.0906 13.78835407720880"
      },
      "geometry": {
        "type": "Point",
        "coordinates": [
          125.89159477621783,
          -76.02011267253089
        ]
      }
    },
    {
      "type": "Feature",
      "properties": {
        "norad_id": 37791,
        "name": "RASAT",
        "group": "resource",
        "lat": -61.38933611050853,
        "lon": -119.48112076057204,
        "alt_km": 690.3354052622399,
        "timestamp": "2025-12-12T07:43:20.160417+00:00",
        "meta_object_name": "RASAT",
        "meta_object_id": "2011-044D",
        "meta_epoch": "2025-12-12T00:37:35.153184",
        "meta_mean_motion": 14.67907302,
        "meta_eccentricity": 0.00219203,
        "meta_inclination": 98.0646,
        "meta_ra_of_asc_node": 75.294,
        "meta_arg_of_pericenter": 67.0956,
        "meta_mean_anomaly": 53.8178,
        "meta_ephemeris_type": 0,
        "meta_classification_type": "U",
        "meta_norad_cat_id": 37791,
        "meta_element_set_no": 999,
        "meta_rev_at_epoch": 76572,
        "meta_bstar": 0.00015819216,
        "meta_mean_motion_dot": 8.59e-06,
        "meta_mean_motion_ddot": 0,
        "tle_line1": "1 37791U 11044D   25346.02610131  .00000859  00000+0  15819-3 0  9999",
        "tle_line2": "2 37791  98.0646  75.2940 0021920  67.0956  53.8178 14.67907302765724"
      },
      "geometry": {
        "type": "Point",
        "coordinates": [
          -119.48112076057204,
          -61.38933611050853
        ]
      }
    },
    {
      "type": "Feature",
      "properties": {
        "norad_id": 37841,
        "name": "SRMSAT",
        "group": "resource",
        "lat": 19.156743226263973,
        "lon": -142.5691689226928,
        "alt_km": 856.9148036745519,
        "timestamp": "2025-12-12T07:43:20.160427+00:00",
        "meta_object_name": "SRMSAT",
        "meta_object_id": "2011-058D",
        "meta_epoch": "2025-12-11T16:31:02.191584",
        "meta_mean_motion": 14.1151099,
        "meta_eccentricity": 0.00117304,
        "meta_inclination": 19.9707,
        "meta_ra_of_asc_node": 114.3146,
        "meta_arg_of_pericenter": 301.8177,
        "meta_mean_anomaly": 177.8356,
        "meta_ephemeris_type": 0,
        "meta_classification_type": "U",
        "meta_norad_cat_id": 37841,
        "meta_element_set_no": 999,
        "meta_rev_at_epoch": 73129,
        "meta_bstar": 0.0001411213,
        "meta_mean_motion_dot": 5.25e-06,
        "meta_mean_motion_ddot": 0,
        "tle_line1": "1 37841U 11058D   25345.68821981  .00000525  00000+0  14112-3 0  9993",
        "tle_line2": "2 37841  19.9707 114.3146 0011730 301.8177 177.8356 14.11510990731297"
      },
      "geometry": {
        "type": "Point",
        "coordinates": [
          -142.5691689226928,
          19.156743226263973
        ]
      }
    },
    {
      "type": "Feature",
      "properties": {
        "norad_id": 38012,
        "name": "PLEIADES 1A",
        "group": "resource",
        "lat": 50.76053410462317,
        "lon": 48.95014342223658,
        "alt_km": 692.2705057160283,
        "timestamp": "2025-12-12T07:43:20.160438+00:00",
        "meta_object_name": "PLEIADES 1A",
        "meta_object_id": "2011-076F",
        "meta_epoch": "2025-12-12T01:26:48.105600",
        "meta_mean_motion": 14.5856033,
        "meta_eccentricity": 0.00013371,
        "meta_inclination": 98.1819,
        "meta_ra_of_asc_node": 58.8389,
        "meta_arg_of_pericenter": 73.9014,
        "meta_mean_anomaly": 45.4803,
        "meta_ephemeris_type": 0,
        "meta_classification_type": "U",
        "meta_norad_cat_id": 38012,
        "meta_element_set_no": 999,
        "meta_rev_at_epoch": 74471,
        "meta_bstar": 0.00016154511,
        "meta_mean_motion_dot": 7.06e-06,
        "meta_mean_motion_ddot": 0,
        "tle_line1": "1 38012U 11076F   25346.06027900  .00000706  00000+0  16155-3 0  9996",
        "tle_line2": "2 38012  98.1819  58.8389 0001337  73.9014  45.4803 14.58560330744713"
      },
      "geometry": {
        "type": "Point",
        "coordinates": [
          48.95014342223658,
          50.76053410462317
        ]
      }
    },
    {
      "type": "Feature",
      "properties": {
        "norad_id": 38038,
        "name": "ZIYUAN 1-02C (ZY 1-02C)",
        "group": "resource",
        "lat": -9.827543235994241,
        "lon": 53.815072951293004,
        "alt_km": 773.5872495319172,
        "timestamp": "2025-12-12T07:43:20.160450+00:00",
        "meta_object_name": "ZIYUAN 1-02C (ZY 1-02C)",
        "meta_object_id": "2011-079A",
        "meta_epoch": "2025-12-12T01:23:24.852192",
        "meta_mean_motion": 14.38010763,
        "meta_eccentricity": 0.00071331,
        "meta_inclination": 98.4329,
        "meta_ra_of_asc_node": 52.0836,
        "meta_arg_of_pericenter": 140.1376,
        "meta_mean_anomaly": 285.0467,
        "meta_ephemeris_type": 0,
        "meta_classification_type": "U",
        "meta_norad_cat_id": 38038,
        "meta_element_set_no": 999,
        "meta_rev_at_epoch": 73231,
        "meta_bstar": 0.00028158984,
        "meta_mean_motion_dot": 8.09e-06,
        "meta_mean_motion_ddot": 0,
        "tle_line1": "1 38038U 11079A   25346.05792653  .00000809  00000+0  28159-3 0  9991",
        "tle_line2": "2 38038  98.4329  52.0836 0007133 140.1376 285.0467 14.38010763732310"
      },
      "geometry": {
        "type": "Point",
        "coordinates": [
          53.815072951293004,
          -9.827543235994241
        ]
      }
    },
    {
      "type": "Feature",
      "properties": {
        "norad_id": 38046,
        "name": "ZIYUAN 3-1 (ZY 3-1)",
        "group": "resource",
        "lat": -50.04603429108694,
        "lon": 61.37836739332876,
        "alt_km": 369.35108906386904,
        "timestamp": "2025-12-12T07:43:20.160461+00:00",
        "meta_object_name": "ZIYUAN 3-1 (ZY 3-1)",
        "meta_object_id": "2012-001A",
        "meta_epoch": "2025-12-12T00:16:53.651712",
        "meta_mean_motion": 15.68427534,
        "meta_eccentricity": 0.00017398,
        "meta_inclination": 97.1753,
        "meta_ra_of_asc_node": 52.4118,
        "meta_arg_of_pericenter": 353.5619,
        "meta_mean_anomaly": 6.562,
        "meta_ephemeris_type": 0,
        "meta_classification_type": "U",
        "meta_norad_cat_id": 38046,
        "meta_element_set_no": 999,
        "meta_rev_at_epoch": 77485,
        "meta_bstar": 0.00078096545,
        "meta_mean_motion_dot": 0.00088519,
        "meta_mean_motion_ddot": 0,
        "tle_line1": "1 38046U 12001A   25346.01173208  .00088519  00000+0  78097-3 0  9991",
        "tle_line2": "2 38046  97.1753  52.4118 0001739 353.5619   6.5620 15.68427534774853"
      },
      "geometry": {
        "type": "Point",
        "coordinates": [
          61.37836739332876,
          -50.04603429108694
        ]
      }
    },
    {
      "type": "Feature",
      "properties": {
        "norad_id": 38338,
        "name": "ARIRANG-3 (KOMPSAT-3)",
        "group": "resource",
        "lat": -54.988315747546196,
        "lon": -47.015983598967,
        "alt_km": 691.5808869126122,
        "timestamp": "2025-12-12T07:43:20.160471+00:00",
        "meta_object_name": "ARIRANG-3 (KOMPSAT-3)",
        "meta_object_id": "2012-025B",
        "meta_epoch": "2025-12-11T23:45:46.010304",
        "meta_mean_motion": 14.61711283,
        "meta_eccentricity": 0.00054148,
        "meta_inclination": 98.3321,
        "meta_ra_of_asc_node": 300.5739,
        "meta_arg_of_pericenter": 341.2211,
        "meta_mean_anomaly": 18.8789,
        "meta_ephemeris_type": 0,
        "meta_classification_type": "U",
        "meta_norad_cat_id": 38338,
        "meta_element_set_no": 999,
        "meta_rev_at_epoch": 72399,
        "meta_bstar": 0.00020687858,
        "meta_mean_motion_dot": 9.82e-06,
        "meta_mean_motion_ddot": 0,
        "tle_line1": "1 38338U 12025B   25345.99011586  .00000982  00000+0  20688-3 0  9998",
        "tle_line2": "2 38338  98.3321 300.5739 0005414 341.2211  18.8789 14.61711283723993"
      },
      "geometry": {
        "type": "Point",
        "coordinates": [
          -47.015983598967,
          -54.988315747546196
        ]
      }
    }
  ]
}